[{"OBJECT_NAME":"STARLINK-35651","OBJECT_ID":"2025-257G","EPOCH":"2026-03-09T16:02:32.878176","MEAN_MOTION":15.30196171,"ECCENTRICITY":6.943e-5,"INCLINATION":53.16,"RA_OF_ASC_NODE":216.8789,"ARG_OF_PERICENTER":123.2496,"MEAN_ANOMALY":236.8572,"EPHEMERIS_TYPE":0,"CLASSIFICATION_TYPE":"U","NORAD_CAT_ID":66386,"ELEMENT_SET_NO":999,"REV_AT_EPOCH":1973,"BSTAR":0.00063435779,"MEAN_MOTION_DOT":0.00018473,"MEAN_MOTION_DDOT":0},{"OBJECT_NAME":"COSMOS 2251 DEB","OBJECT_ID":"1993-036BN","EPOCH":"2026-03-09T17:54:27.582912","MEAN_MOTION":15.31852549,"ECCENTRICITY":0.0043021,"INCLINATION":74.0291,"RA_OF_ASC_NODE":318.0178,"ARG_OF_PERICENTER":323.0874,"MEAN_ANOMALY":36.7369,"EPHEMERIS_TYPE":0,"CLASSIFICATION_TYPE":"U","NORAD_CAT_ID":33821,"ELEMENT_SET_NO":999,"REV_AT_EPOCH":76330,"BSTAR":0.0011195846,"MEAN_MOTION_DOT":0.00035571,"MEAN_MOTION_DDOT":0}]
